{
  "type": "FeatureCollection",
  "features": [
    {
      "type": "Feature",
      "properties": {
        "norad_id": 40069,
        "name": "METEOR-M 2",
        "group": "weather",
        "lat": -31.436114826404065,
        "lon": -39.97986226279572,
        "alt_km": 826.3917755010698,
        "timestamp": "2025-12-02T19:35:50.205178+00:00",
        "meta_object_name": "METEOR-M 2",
        "meta_object_id": "2014-037A",
        "meta_epoch": "2025-12-02T11:17:57.914016",
        "meta_mean_motion": 14.21380031,
        "meta_eccentricity": 0.000468,
        "meta_inclination": 98.4892,
        "meta_ra_of_asc_node": 314.4496,
        "meta_arg_of_pericenter": 244.2374,
        "meta_mean_anomaly": 115.8321,
        "meta_ephemeris_type": 0,
        "meta_classification_type": "U",
        "meta_norad_cat_id": 40069,
        "meta_element_set_no": 999,
        "meta_rev_at_epoch": 59137,
        "meta_bstar": 0.00011474,
        "meta_mean_motion_dot": 2.09e-06,
        "meta_mean_motion_ddot": 0,
        "tle_line1": "1 40069U 14037A   25336.47080919  .00000209  00000+0  11474-3 0  9991",
        "tle_line2": "2 40069  98.4892 314.4496 0004680 244.2374 115.8321 14.21380031591375"
      },
      "geometry": {
        "type": "Point",
        "coordinates": [
          -39.97986226279572,
          -31.436114826404065
        ]
      }
    },
    {
      "type": "Feature",
      "properties": {
        "norad_id": 40267,
        "name": "HIMAWARI-8",
        "group": "weather",
        "lat": -0.013773752858304377,
        "lon": 146.51897433178618,
        "alt_km": 35790.43115290324,
        "timestamp": "2025-12-02T19:35:50.205190+00:00",
        "meta_object_name": "HIMAWARI-8",
        "meta_object_id": "2014-060A",
        "meta_epoch": "2025-12-02T09:36:51.761376",
        "meta_mean_motion": 1.00270839,
        "meta_eccentricity": 0.0001288,
        "meta_inclination": 0.0438,
        "meta_ra_of_asc_node": 142.2785,
        "meta_arg_of_pericenter": 142.4407,
        "meta_mean_anomaly": 71.6851,
        "meta_ephemeris_type": 0,
        "meta_classification_type": "U",
        "meta_norad_cat_id": 40267,
        "meta_element_set_no": 999,
        "meta_rev_at_epoch": 4078,
        "meta_bstar": 0,
        "meta_mean_motion_dot": -2.55e-06,
        "meta_mean_motion_ddot": 0,
        "tle_line1": "1 40267U 14060A   25336.40059909 -.00000255  00000+0  00000+0 0  9996",
        "tle_line2": "2 40267   0.0438 142.2785 0001288 142.4407  71.6851  1.00270839 40783"
      },
      "geometry": {
        "type": "Point",
        "coordinates": [
          146.51897433178618,
          -0.013773752858304377
        ]
      }
    },
    {
      "type": "Feature",
      "properties": {
        "norad_id": 40367,
        "name": "FENGYUN 2G",
        "group": "weather",
        "lat": 2.6114652773822358,
        "lon": 105.46738203505352,
        "alt_km": 35799.020660336246,
        "timestamp": "2025-12-02T19:35:50.205202+00:00",
        "meta_object_name": "FENGYUN 2G",
        "meta_object_id": "2014-090A",
        "meta_epoch": "2025-12-01T19:25:27.039072",
        "meta_mean_motion": 1.00268232,
        "meta_eccentricity": 0.00030118,
        "meta_inclination": 5.1381,
        "meta_ra_of_asc_node": 75.2239,
        "meta_arg_of_pericenter": 193.0179,
        "meta_mean_anomaly": 193.7823,
        "meta_ephemeris_type": 0,
        "meta_classification_type": "U",
        "meta_norad_cat_id": 40367,
        "meta_element_set_no": 999,
        "meta_rev_at_epoch": 4002,
        "meta_bstar": 0,
        "meta_mean_motion_dot": -2.82e-06,
        "meta_mean_motion_ddot": 0,
        "tle_line1": "1 40367U 14090A   25335.80934073 -.00000282  00000+0  00000+0 0  9997",
        "tle_line2": "2 40367   5.1381  75.2239 0003011 193.0179 193.7823  1.00268232 40026"
      },
      "geometry": {
        "type": "Point",
        "coordinates": [
          105.46738203505352,
          2.6114652773822358
        ]
      }
    },
    {
      "type": "Feature",
      "properties": {
        "norad_id": 40732,
        "name": "METEOSAT-11 (MSG-4)",
        "group": "weather",
        "lat": -2.244939906561102,
        "lon": 15.341016886100963,
        "alt_km": 35785.58878848375,
        "timestamp": "2025-12-02T19:35:50.205215+00:00",
        "meta_object_name": "METEOSAT-11 (MSG-4)",
        "meta_object_id": "2015-034A",
        "meta_epoch": "2025-12-02T06:58:49.133280",
        "meta_mean_motion": 1.00277446,
        "meta_eccentricity": 2.54e-05,
        "meta_inclination": 2.7095,
        "meta_ra_of_asc_node": 72.0273,
        "meta_arg_of_pericenter": 161.6934,
        "meta_mean_anomaly": 311.8293,
        "meta_ephemeris_type": 0,
        "meta_classification_type": "U",
        "meta_norad_cat_id": 40732,
        "meta_element_set_no": 999,
        "meta_rev_at_epoch": 524,
        "meta_bstar": 0,
        "meta_mean_motion_dot": 8.4e-07,
        "meta_mean_motion_ddot": 0,
        "tle_line1": "1 40732U 15034A   25336.29084645  .00000084  00000+0  00000+0 0  9996",
        "tle_line2": "2 40732   2.7095  72.0273 0000254 161.6934 311.8293  1.00277446  5242"
      },
      "geometry": {
        "type": "Point",
        "coordinates": [
          15.341016886100963,
          -2.244939906561102
        ]
      }
    },
    {
      "type": "Feature",
      "properties": {
        "norad_id": 41105,
        "name": "ELEKTRO-L 2",
        "group": "weather",
        "lat": -6.120939186696626,
        "lon": -8.567895313382195,
        "alt_km": 35785.040853952094,
        "timestamp": "2025-12-02T19:35:50.205227+00:00",
        "meta_object_name": "ELEKTRO-L 2",
        "meta_object_id": "2015-074A",
        "meta_epoch": "2025-12-02T01:43:47.338752",
        "meta_mean_motion": 1.00269907,
        "meta_eccentricity": 0.00039368,
        "meta_inclination": 6.1965,
        "meta_ra_of_asc_node": 72.9528,
        "meta_arg_of_pericenter": 196.8313,
        "meta_mean_anomaly": 172.831,
        "meta_ephemeris_type": 0,
        "meta_classification_type": "U",
        "meta_norad_cat_id": 41105,
        "meta_element_set_no": 999,
        "meta_rev_at_epoch": 3653,
        "meta_bstar": 0,
        "meta_mean_motion_dot": -9.8e-07,
        "meta_mean_motion_ddot": 0,
        "tle_line1": "1 41105U 15074A   25336.07207568 -.00000098  00000+0  00000+0 0  9998",
        "tle_line2": "2 41105   6.1965  72.9528 0003936 196.8313 172.8310  1.00269907 36538"
      },
      "geometry": {
        "type": "Point",
        "coordinates": [
          -8.567895313382195,
          -6.120939186696626
        ]
      }
    },
    {
      "type": "Feature",
      "properties": {
        "norad_id": 41752,
        "name": "INSAT-3DR",
        "group": "weather",
        "lat": 0.016666478317478587,
        "lon": 79.90704475089471,
        "alt_km": 35846.81048122969,
        "timestamp": "2025-12-02T19:35:50.205239+00:00",
        "meta_object_name": "INSAT-3DR",
        "meta_object_id": "2016-054A",
        "meta_epoch": "2025-12-02T02:08:59.925408",
        "meta_mean_motion": 1.00269631,
        "meta_eccentricity": 0.00143758,
        "meta_inclination": 0.0638,
        "meta_ra_of_asc_node": 89.7219,
        "meta_arg_of_pericenter": 179.0448,
        "meta_mean_anomaly": 268.7222,
        "meta_ephemeris_type": 0,
        "meta_classification_type": "U",
        "meta_norad_cat_id": 41752,
        "meta_element_set_no": 999,
        "meta_rev_at_epoch": 3384,
        "meta_bstar": 0,
        "meta_mean_motion_dot": -5.6e-07,
        "meta_mean_motion_ddot": 0,
        "tle_line1": "1 41752U 16054A   25336.08958247 -.00000056  00000+0  00000+0 0  9997",
        "tle_line2": "2 41752   0.0638  89.7219 0014375 179.0448 268.7222  1.00269631 33842"
      },
      "geometry": {
        "type": "Point",
        "coordinates": [
          79.90704475089471,
          0.016666478317478587
        ]
      }
    },
    {
      "type": "Feature",
      "properties": {
        "norad_id": 41836,
        "name": "HIMAWARI-9",
        "group": "weather",
        "lat": -0.0028349911138847734,
        "lon": 146.56615915105564,
        "alt_km": 35796.34667950432,
        "timestamp": "2025-12-02T19:35:50.205252+00:00",
        "meta_object_name": "HIMAWARI-9",
        "meta_object_id": "2016-064A",
        "meta_epoch": "2025-12-02T11:21:38.666880",
        "meta_mean_motion": 1.00267593,
        "meta_eccentricity": 0.0002385,
        "meta_inclination": 0.0198,
        "meta_ra_of_asc_node": 328.7015,
        "meta_arg_of_pericenter": 332.4974,
        "meta_mean_anomaly": 81.5255,
        "meta_ephemeris_type": 0,
        "meta_classification_type": "U",
        "meta_norad_cat_id": 41836,
        "meta_element_set_no": 999,
        "meta_rev_at_epoch": 3323,
        "meta_bstar": 0,
        "meta_mean_motion_dot": 0,
        "meta_mean_motion_ddot": 0,
        "tle_line1": "1 41836U 16064A   25336.47336420  .00000000  00000+0  00000+0 0  9995",
        "tle_line2": "2 41836   0.0198 328.7015 0002385 332.4974  81.5255  1.00267593 33238"
      },
      "geometry": {
        "type": "Point",
        "coordinates": [
          146.56615915105564,
          -0.0028349911138847734
        ]
      }
    }
  ]
}